COMMENT,ORIGINATOR,NORAD_CAT_ID,OBJECT_NAME,OBJECT_TYPE,CLASSIFICATION_TYPE,INTLDES,EPOCH,EPOCH_MICROSECONDS,MEAN_MOTION,ECCENTRICITY,INCLINATION,RA_OF_ASC_NODE,ARG_OF_PERICENTER,MEAN_ANOMALY,EPHEMERIS_TYPE,ELEMENT_SET_NO,REV_AT_EPOCH,BSTAR,MEAN_MOTION_DOT,MEAN_MOTION_DDOT,FILE,TLE_LINE0,TLE_LINE1,TLE_LINE2,OBJECT_ID,OBJECT_NUMBER,SEMIMAJOR_AXIS,PERIOD,APOGEE,PERIGEE,DECAYED
"GENERATED VIA SPACETRACK.ORG API","18 SPCS","48895","SPACEBEE-108","PAYLOAD","U","21059S","2022-04-30 15:00:56","744064","15.14884349","0.000821","97.5499","250.6481","269.3044","90.7248","0","999","4669","0.00079579","0.00014773","0","3422880","0 SPACEBEE-108","1 48895U 21059S   22120.62565676  .00014773  00000-0  79579-3 0  9993","2 48895  97.5499 250.6481 0008210 269.3044  90.7248 15.14884349 46696","2021-059S","48895","6899.467","95.057","526.996","515.667","0"
"GENERATED VIA SPACETRACK.ORG API","18 SPCS","48895","SPACEBEE-108","PAYLOAD","U","21059S","2022-04-30 21:21:24","774048","15.14890979","0.0008176","97.5499","250.9104","268.2557","91.7738","0","999","4673","0.00070775","0.00013131","0","3423346","0 SPACEBEE-108","1 48895U 21059S   22120.88987007  .00013131  00000-0  70775-3 0  9993","2 48895  97.5499 250.9104 0008176 268.2557  91.7738 15.14890979 46735","2021-059S","48895","6899.447","95.056","526.953","515.671","0"
"GENERATED VIA SPACETRACK.ORG API","18 SPCS","48895","SPACEBEE-108","PAYLOAD","U","21059S","2022-05-01 08:27:13","598208","15.14903517","0.0008137","97.5502","251.3693","266.5736","93.4565","0","999","4680","0.00068496","0.0001271","0","3424314","0 SPACEBEE-108","1 48895U 21059S   22121.35224072  .00012710  00000-0  68496-3 0  9991","2 48895  97.5502 251.3693 0008137 266.5736  93.4565 15.14903517 46803","2021-059S","48895","6899.408","95.056","526.888","515.659","0"
"GENERATED VIA SPACETRACK.ORG API","18 SPCS","48895","SPACEBEE-108","PAYLOAD","U","21059S","2022-05-02 03:28:36","663456","15.14919358","0.0008142","97.5504","252.1562","263.365","96.6656","0","999","4692","0.00056285","0.00010433","0","3424903","0 SPACEBEE-108","1 48895U 21059S   22122.14486879  .00010433  00000-0  56285-3 0  9997","2 48895  97.5504 252.1562 0008142 263.3650  96.6656 15.14919358 46924","2021-059S","48895","6899.360","95.055","526.843","515.608","0"
"GENERATED VIA SPACETRACK.ORG API","18 SPCS","48895","SPACEBEE-108","PAYLOAD","U","21059S","2022-05-02 08:13:57","313344","15.14923663","0.000814","97.5504","252.353","262.5769","97.4538","0","999","4695","0.00054696","0.00010138","0","3425830","0 SPACEBEE-108","1 48895U 21059S   22122.34302446  .00010138  00000-0  54696-3 0  9992","2 48895  97.5504 252.3530 0008140 262.5769  97.4538 15.14923663 46956","2021-059S","48895","6899.347","95.054","526.828","515.596","0"
"GENERATED VIA SPACETRACK.ORG API","18 SPCS","48895","SPACEBEE-108","PAYLOAD","U","21059S","2022-05-03 08:00:40","26240","15.14939254","0.0008237","97.5504","253.3367","258.7005","101.3301","0","999","4710","0.00043736","0.00008094","0","3426835","0 SPACEBEE-108","1 48895U 21059S   22123.33379660  .00008094  00000-0  43736-3 0  9995","2 48895  97.5504 253.3367 0008237 258.7005 101.3301 15.14939254 47106","2021-059S","48895","6899.300","95.053","526.848","515.482","0"
"GENERATED VIA SPACETRACK.ORG API","18 SPCS","48895","SPACEBEE-108","PAYLOAD","U","21059S","2022-05-03 14:21:07","253568","15.14943573","0.0008271","97.5504","253.599","257.7042","102.3264","0","999","4714","0.00045234","0.00008375","0","3427159","0 SPACEBEE-108","1 48895U 21059S   22123.59800062  .00008375  00000-0  45234-3 0  9995","2 48895  97.5504 253.5990 0008271 257.7042 102.3264 15.14943573 47140","2021-059S","48895","6899.287","95.053","526.858","515.445","0"
"GENERATED VIA SPACETRACK.ORG API","18 SPCS","48895","SPACEBEE-108","PAYLOAD","U","21059S","2022-05-04 07:47:21","802560","15.14959904","0.0008322","97.5503","254.3204","254.8758","105.1553","0","999","4725","0.000593","0.0001101","0","3428698","0 SPACEBEE-108","1 48895U 21059S   22124.32455790  .00011010  00000-0  59300-3 0  9990","2 48895  97.5503 254.3204 0008322 254.8758 105.1553 15.14959904 47254","2021-059S","48895","6899.237","95.052","526.844","515.361","0"
"GENERATED VIA SPACETRACK.ORG API","18 SPCS","48895","SPACEBEE-108","PAYLOAD","U","21059S","2022-05-05 07:34:02","385696","15.14989657","0.0008367","97.5502","255.3042","250.8441","109.1886","0","999","4740","0.00094394","0.00017596","0","3429885","0 SPACEBEE-108","1 48895U 21059S   22125.31530539  .00017596  00000-0  94394-3 0  9992","2 48895  97.5502 255.3042 0008367 250.8441 109.1886 15.14989657 47406","2021-059S","48895","6899.147","95.050","526.784","515.239","0"
"GENERATED VIA SPACETRACK.ORG API","18 SPCS","48895","SPACEBEE-108","PAYLOAD","U","21059S","2022-05-05 07:34:02","385696","15.14989657","0.0008367","97.5502","255.3042","250.8441","109.1886","0","999","4740","0.00094394","0.00017596","0","3430353","0 SPACEBEE-108","1 48895U 21059S   22125.31530539  .00017596  00000-0  94394-3 0  9992","2 48895  97.5502 255.3042 0008367 250.8441 109.1886 15.14989657 47406","2021-059S","48895","6899.147","95.050","526.784","515.239","0"
"GENERATED VIA SPACETRACK.ORG API","18 SPCS","48895","SPACEBEE-108","PAYLOAD","U","21059S","2022-05-05 20:14:55","699872","15.14995596","0.0008396","97.5504","255.829","248.8629","111.1706","0","999","4748","0.00081584","0.00015196","0","3430750","0 SPACEBEE-108","1 48895U 21059S   22125.84370023  .00015196  00000-0  81584-3 0  9991","2 48895  97.5504 255.8290 0008396 248.8629 111.1706 15.14995596 47486","2021-059S","48895","6899.129","95.050","526.786","515.201","0"
"GENERATED VIA SPACETRACK.ORG API","18 SPCS","48895","SPACEBEE-108","PAYLOAD","U","21059S","2022-05-06 04:10:28","852320","15.1500115","0.0008392","97.5504","256.157","247.6555","112.3788","0","999","4753","0.00080402","0.00014977","0","3430956","0 SPACEBEE-108","1 48895U 21059S   22126.17394505  .00014977  00000-0  80402-3 0  9993","2 48895  97.5504 256.1570 0008392 247.6555 112.3788 15.15001150 47536","2021-059S","48895","6899.112","95.049","526.767","515.187","0"
"GENERATED VIA SPACETRACK.ORG API","18 SPCS","48895","SPACEBEE-108","PAYLOAD","U","21059S","2022-05-06 07:20:42","31392","15.15005403","0.0008408","97.5504","256.2882","247.0561","112.9784","0","999","4755","0.00083972","0.00015648","0","3432208","0 SPACEBEE-108","1 48895U 21059S   22126.30604203  .00015648  00000-0  83972-3 0  9998","2 48895  97.5504 256.2882 0008408 247.0561 112.9784 15.15005403 47551","2021-059S","48895","6899.099","95.049","526.765","515.163","0"
"GENERATED VIA SPACETRACK.ORG API","18 SPCS","48895","SPACEBEE-108","PAYLOAD","U","21059S","2022-05-07 02:22:00","862176","15.15022232","0.0008429","97.5505","257.0754","243.7905","116.2461","0","999","4767","0.00086725","0.00016173","0","3432833","0 SPACEBEE-108","1 48895U 21059S   22127.09862109  .00016173  00000-0  86725-3 0  9999","2 48895  97.5505 257.0754 0008429 243.7905 116.2461 15.15022232 47678","2021-059S","48895","6899.048","95.048","526.728","515.098","0"
"GENERATED VIA SPACETRACK.ORG API","18 SPCS","48895","SPACEBEE-108","PAYLOAD","U","21059S","2022-05-07 08:42:27","73440","15.15021655","0.0008446","97.5506","257.3378","242.7745","117.2627","0","999","4771","0.00068415","0.00012738","0","3433971","0 SPACEBEE-108","1 48895U 21059S   22127.36281335  .00012738  00000-0  68415-3 0  9994","2 48895  97.5506 257.3378 0008446 242.7745 117.2627 15.15021655 47712","2021-059S","48895","6899.050","95.048","526.742","515.088","0"
"GENERATED VIA SPACETRACK.ORG API","18 SPCS","48895","SPACEBEE-108","PAYLOAD","U","21059S","2022-05-07 19:48:12","749184","15.15024186","0.0008466","97.5507","257.7969","240.7788","119.2598","0","999","4778","0.00049951","0.00009278","0","3434137","0 SPACEBEE-108","1 48895U 21059S   22127.82514756  .00009278  00000-0  49951-3 0  9990","2 48895  97.5507 257.7969 0008466 240.7788 119.2598 15.15024186 47788","2021-059S","48895","6899.042","95.048","526.748","515.066","0"
"GENERATED VIA SPACETRACK.ORG API","18 SPCS","48895","SPACEBEE-108","PAYLOAD","U","21059S","2022-05-07 19:48:12","749184","15.15024186","0.0008466","97.5507","257.7969","240.7788","119.2598","0","999","4778","0.00049951","0.00009278","0","3434697","0 SPACEBEE-108","1 48895U 21059S   22127.82514756  .00009278  00000-0  49951-3 0  9990","2 48895  97.5507 257.7969 0008466 240.7788 119.2598 15.15024186 47788","2021-059S","48895","6899.042","95.048","526.748","515.066","0"
"GENERATED VIA SPACETRACK.ORG API","18 SPCS","48895","SPACEBEE-108","PAYLOAD","U","21059S","2022-05-08 08:29:04","680960","15.15035287","0.0008484","97.5506","258.3218","238.7981","121.242","0","999","4786","0.0005848","0.0001088","0","3435746","0 SPACEBEE-108","1 48895U 21059S   22128.35352640  .00010880  00000-0  58480-3 0  9999","2 48895  97.5506 258.3218 0008484 238.7981 121.2420 15.15035287 47863","2021-059S","48895","6899.008","95.047","526.727","515.020","0"
"GENERATED VIA SPACETRACK.ORG API","18 SPCS","48895","SPACEBEE-108","PAYLOAD","U","21059S","2022-05-08 21:09:56","333664","15.15042027","0.0008487","97.5506","258.8467","236.6904","123.3516","0","999","4794","0.00050284","0.00009346","0","3436768","0 SPACEBEE-108","1 48895U 21059S   22128.88190201  .00009346  00000-0  50284-3 0  9999","2 48895  97.5506 258.8467 0008487 236.6904 123.3516 15.15042027 47947","2021-059S","48895","6898.988","95.047","526.708","514.998","0"
"GENERATED VIA SPACETRACK.ORG API","18 SPCS","48895","SPACEBEE-108","PAYLOAD","U","21059S","2022-05-09 01:55:15","616704","15.15045173","0.0008499","97.5505","259.0435","236.0549","123.9875","0","999","4797","0.00049823","0.0000926","0","3436340","0 SPACEBEE-108","1 48895U 21059S   22129.08004186  .00009260  00000-0  49823-3 0  9990","2 48895  97.5505 259.0435 0008499 236.0549 123.9875 15.15045173 47978","2021-059S","48895","6898.978","95.047","526.707","514.980","0"
